ONEWEB-0603             
1 54667U 22166AB  23238.54573835  .00000020  00000+0  17047-4 0  9997
2 54667  87.9181  88.1970 0001246  72.5909 287.5361 13.21827361 35983
ONEWEB-0604             
1 54668U 22166AC  23238.07893596  .00000125  00000+0  27086-3 0  9994
2 54668  87.9175  88.2917 0001030  86.1035 274.0217 13.21827645 35886
ONEWEB-0605             
1 54669U 22166AD  23238.07263181  .00000120  00000+0  25935-3 0  9992
2 54669  87.9141  88.3161 0001687  67.4975 292.6338 13.21822822 35955
ONEWEB-0606             
1 54670U 22166AE  23238.09470095  .00000037  00000+0  56941-4 0  9999
2 54670  87.9215  88.2928 0002123  86.8768 273.2609 13.21822616 36015
ONEWEB-0607             
1 54671U 22166AF  23238.51419529  .00000000  00000+0 -32128-4 0  9994
2 54671  87.9173  88.2051 0001512  79.3503 280.7801 13.21823327 36041
ONEWEB-0608             
1 54672U 22166AG  23238.52048561 -.00010557  00000+0 -25605-1 0  9998
2 54672  87.9177  88.2021 0001751  49.4487 310.6799 13.21876492 36058
ONEWEB-0610             
1 54673U 22166AH  23238.50157709 -.00000016  00000+0 -69844-4 0  9997
2 54673  87.9184  88.2054 0001374  65.2105 294.9172 13.21823563 35955
ONEWEB-0611             
1 54674U 22166AJ  23238.49527125  .00000085  00000+0  17516-3 0  9991
2 54674  87.9183  88.2099 0002154  94.7132 265.4248 13.21826187 35949
